[{"OBJECT_NAME":"STARLINK-6126","OBJECT_ID":"2023-046AJ","EPOCH":"2026-03-09T22:00:01.999584","MEAN_MOTION":15.125351,"ECCENTRICITY":0.00023023,"INCLINATION":42.9998,"RA_OF_ASC_NODE":144.9048,"ARG_OF_PERICENTER":271.6853,"MEAN_ANOMALY":109.3366,"EPHEMERIS_TYPE":0,"CLASSIFICATION_TYPE":"U","NORAD_CAT_ID":56124,"ELEMENT_SET_NO":999,"REV_AT_EPOCH":577,"BSTAR":0.0675572,"MEAN_MOTION_DOT":0.01299298,"MEAN_MOTION_DDOT":0},{"OBJECT_NAME":"COSMOS 2251 DEB","OBJECT_ID":"1993-036BK","EPOCH":"2026-03-09T19:57:45.204480","MEAN_MOTION":15.2250442,"ECCENTRICITY":0.00171058,"INCLINATION":74.0815,"RA_OF_ASC_NODE":344.9963,"ARG_OF_PERICENTER":285.2465,"MEAN_ANOMALY":74.6843,"EPHEMERIS_TYPE":0,"CLASSIFICATION_TYPE":"U","NORAD_CAT_ID":33818,"ELEMENT_SET_NO":999,"REV_AT_EPOCH":91183,"BSTAR":0.0028725842,"MEAN_MOTION_DOT":0.00067433,"MEAN_MOTION_DDOT":0}]
